{"fetched_at":"2026-07-17T06:37:49.595Z","source":"https://celestrak.org/NORAD/elements/gp.php?GROUP=kuiper&FORMAT=JSON","constellation":"kuiper","records":[{"OBJECT_NAME":"KUIPER-00080","OBJECT_ID":"2025-151M","EPOCH":"2026-07-16T17:00:02.464704","CLASSIFICATION_TYPE":"U","MEAN_MOTION":14.79896651,"ECCENTRICITY":0.0000582,"INCLINATION":51.9003,"RA_OF_ASC_NODE":90.045,"ARG_OF_PERICENTER":100.691,"MEAN_ANOMALY":259.4118,"EPHEMERIS_TYPE":0,"NORAD_CAT_ID":64827,"ELEMENT_SET_NO":999,"REV_AT_EPOCH":5441,"BSTAR":0.00021113,"MEAN_MOTION_DOT":0.00001387,"MEAN_MOTION_DDOT":0},{"OBJECT_NAME":"KUIPER-00082","OBJECT_ID":"2025-151N","EPOCH":"2026-07-15T21:03:50.434848","CLASSIFICATION_TYPE":"U","MEAN_MOTION":14.79933866,"ECCENTRICITY":0.0000897,"INCLINATION":51.9023,"RA_OF_ASC_NODE":81.27,"ARG_OF_PERICENTER":104.2558,"MEAN_ANOMALY":255.8504,"EPHEMERIS_TYPE":0,"NORAD_CAT_ID":64828,"ELEMENT_SET_NO":999,"REV_AT_EPOCH":5446,"BSTAR":0.00023561,"MEAN_MOTION_DOT":0.00001575,"MEAN_MOTION_DDOT":0},{"OBJECT_NAME":"KUIPER-00083","OBJECT_ID":"2025-151P","EPOCH":"2026-07-16T16:19:05.976192","CLASSIFICATION_TYPE":"U","MEAN_MOTION":14.79936211,"ECCENTRICITY":0.0000778,"INCLINATION":51.9013,"RA_OF_ASC_NODE":85.2064,"ARG_OF_PERICENTER":106.6366,"MEAN_ANOMALY":253.4681,"EPHEMERIS_TYPE":0,"NORAD_CAT_ID":64829,"ELEMENT_SET_NO":999,"REV_AT_EPOCH":5566,"BSTAR":0.00024438,"MEAN_MOTION_DOT":0.00001642,"MEAN_MOTION_DDOT":0},{"OBJECT_NAME":"KUIPER-00084","OBJECT_ID":"2025-151Q","EPOCH":"2026-07-16T17:40:44.685120","CLASSIFICATION_TYPE":"U","MEAN_MOTION":14.79931247,"ECCENTRICITY":0.0000933,"INCLINATION":51.9024,"RA_OF_ASC_NODE":94.9398,"ARG_OF_PERICENTER":121.9095,"MEAN_ANOMALY":238.1958,"EPHEMERIS_TYPE":0,"NORAD_CAT_ID":64830,"ELEMENT_SET_NO":999,"REV_AT_EPOCH":5434,"BSTAR":-0.00049365,"MEAN_MOTION_DOT":-0.00003982,"MEAN_MOTION_DDOT":0},{"OBJECT_NAME":"KUIPER-00085","OBJECT_ID":"2025-151R","EPOCH":"2026-07-16T15:42:08.356032","CLASSIFICATION_TYPE":"U","MEAN_MOTION":14.79935642,"ECCENTRICITY":0.0000782,"INCLINATION":51.9039,"RA_OF_ASC_NODE":77.8833,"ARG_OF_PERICENTER":106.9958,"MEAN_ANOMALY":253.109,"EPHEMERIS_TYPE":0,"NORAD_CAT_ID":64831,"ELEMENT_SET_NO":999,"REV_AT_EPOCH":5457,"BSTAR":0.00023637,"MEAN_MOTION_DOT":0.00001581,"MEAN_MOTION_DDOT":0},{"OBJECT_NAME":"KUIPER-00086","OBJECT_ID":"2025-151S","EPOCH":"2026-07-16T17:03:50.777568","CLASSIFICATION_TYPE":"U","MEAN_MOTION":14.79932431,"ECCENTRICITY":0.0000804,"INCLINATION":51.902,"RA_OF_ASC_NODE":87.5786,"ARG_OF_PERICENTER":106.4261,"MEAN_ANOMALY":253.6789,"EPHEMERIS_TYPE":0,"NORAD_CAT_ID":64832,"ELEMENT_SET_NO":999,"REV_AT_EPOCH":5444,"BSTAR":0.00012807,"MEAN_MOTION_DOT":0.00000755,"MEAN_MOTION_DDOT":0},{"OBJECT_NAME":"KUIPER-00087","OBJECT_ID":"2025-151T","EPOCH":"2026-07-16T15:53:46.462848","CLASSIFICATION_TYPE":"U","MEAN_MOTION":14.79934397,"ECCENTRICITY":0.000099,"INCLINATION":51.9001,"RA_OF_ASC_NODE":70.253,"ARG_OF_PERICENTER":130.461,"MEAN_ANOMALY":229.6439,"EPHEMERIS_TYPE":0,"NORAD_CAT_ID":64833,"ELEMENT_SET_NO":999,"REV_AT_EPOCH":5467,"BSTAR":-0.0000036798,"MEAN_MOTION_DOT":-0.00000249,"MEAN_MOTION_DDOT":0},{"OBJECT_NAME":"KUIPER-00089","OBJECT_ID":"2025-151U","EPOCH":"2026-07-16T01:10:49.563264","CLASSIFICATION_TYPE":"U","MEAN_MOTION":14.79935481,"ECCENTRICITY":0.00007261,"INCLINATION":51.9015,"RA_OF_ASC_NODE":77.989,"ARG_OF_PERICENTER":105.0577,"MEAN_ANOMALY":255.0466,"EPHEMERIS_TYPE":0,"NORAD_CAT_ID":64834,"ELEMENT_SET_NO":999,"REV_AT_EPOCH":5452,"BSTAR":0.00025915808,"MEAN_MOTION_DOT":0.00001755,"MEAN_MOTION_DDOT":0},{"OBJECT_NAME":"KUIPER-00090","OBJECT_ID":"2025-151V","EPOCH":"2026-07-16T15:57:39.659040","CLASSIFICATION_TYPE":"U","MEAN_MOTION":14.79933719,"ECCENTRICITY":0.0000832,"INCLINATION":51.899,"RA_OF_ASC_NODE":67.7712,"ARG_OF_PERICENTER":111.6311,"MEAN_ANOMALY":248.474,"EPHEMERIS_TYPE":0,"NORAD_CAT_ID":64835,"ELEMENT_SET_NO":999,"REV_AT_EPOCH":5471,"BSTAR":0.000017533,"MEAN_MOTION_DOT":-8.8e-7,"MEAN_MOTION_DDOT":0},{"OBJECT_NAME":"KUIPER-00091","OBJECT_ID":"2025-151W","EPOCH":"2026-07-16T01:14:42.603072","CLASSIFICATION_TYPE":"U","MEAN_MOTION":14.79935237,"ECCENTRICITY":0.00008976,"INCLINATION":51.9017,"RA_OF_ASC_NODE":75.4945,"ARG_OF_PERICENTER":111.0186,"MEAN_ANOMALY":249.0872,"EPHEMERIS_TYPE":0,"NORAD_CAT_ID":64836,"ELEMENT_SET_NO":999,"REV_AT_EPOCH":5455,"BSTAR":0.00025104685,"MEAN_MOTION_DOT":0.00001693,"MEAN_MOTION_DDOT":0},{"OBJECT_NAME":"KUIPER-00092","OBJECT_ID":"2025-151X","EPOCH":"2026-07-16T15:38:14.340768","CLASSIFICATION_TYPE":"U","MEAN_MOTION":14.79932172,"ECCENTRICITY":0.0000853,"INCLINATION":51.9022,"RA_OF_ASC_NODE":80.3353,"ARG_OF_PERICENTER":105.7798,"MEAN_ANOMALY":254.3259,"EPHEMERIS_TYPE":0,"NORAD_CAT_ID":64837,"ELEMENT_SET_NO":999,"REV_AT_EPOCH":5575,"BSTAR":0.00011922,"MEAN_MOTION_DOT":0.00000688,"MEAN_MOTION_DDOT":0},{"OBJECT_NAME":"KUIPER-00093","OBJECT_ID":"2025-151Y","EPOCH":"2026-07-16T09:05:23.415072","CLASSIFICATION_TYPE":"U","MEAN_MOTION":14.7993393,"ECCENTRICITY":0.0000857,"INCLINATION":51.9012,"RA_OF_ASC_NODE":84.014,"ARG_OF_PERICENTER":102.9948,"MEAN_ANOMALY":257.111,"EPHEMERIS_TYPE":0,"NORAD_CAT_ID":64838,"ELEMENT_SET_NO":999,"REV_AT_EPOCH":5446,"BSTAR":0.000085758,"MEAN_MOTION_DOT":0.00000433,"MEAN_MOTION_DDOT":0},{"OBJECT_NAME":"KUIPER-00094","OBJECT_ID":"2025-151Z","EPOCH":"2026-07-15T18:02:58.998336","CLASSIFICATION_TYPE":"U","MEAN_MOTION":14.79918806,"ECCENTRICITY":0.00010887,"INCLINATION":51.9051,"RA_OF_ASC_NODE":41.8761,"ARG_OF_PERICENTER":111.9348,"MEAN_ANOMALY":248.173,"EPHEMERIS_TYPE":0,"NORAD_CAT_ID":64839,"ELEMENT_SET_NO":999,"REV_AT_EPOCH":5500,"BSTAR":0.00024983502,"MEAN_MOTION_DOT":0.00001683,"MEAN_MOTION_DDOT":0},{"OBJECT_NAME":"KUIPER-00081","OBJECT_ID":"2025-171A","EPOCH":"2026-07-16T15:16:28.183584","CLASSIFICATION_TYPE":"U","MEAN_MOTION":14.7993192,"ECCENTRICITY":0.0000469,"INCLINATION":51.9013,"RA_OF_ASC_NODE":297.8728,"ARG_OF_PERICENTER":76.607,"MEAN_ANOMALY":283.4944,"EPHEMERIS_TYPE":0,"NORAD_CAT_ID":65132,"ELEMENT_SET_NO":999,"REV_AT_EPOCH":5213,"BSTAR":0.000075495,"MEAN_MOTION_DOT":0.00000354,"MEAN_MOTION_DDOT":0},{"OBJECT_NAME":"KUIPER-00088","OBJECT_ID":"2025-171B","EPOCH":"2026-07-16T16:26:32.142336","CLASSIFICATION_TYPE":"U","MEAN_MOTION":14.79931164,"ECCENTRICITY":0.00005,"INCLINATION":51.9006,"RA_OF_ASC_NODE":315.1589,"ARG_OF_PERICENTER":104.9704,"MEAN_ANOMALY":255.1313,"EPHEMERIS_TYPE":0,"NORAD_CAT_ID":65133,"ELEMENT_SET_NO":999,"REV_AT_EPOCH":5189,"BSTAR":0.000070284,"MEAN_MOTION_DOT":0.00000315,"MEAN_MOTION_DDOT":0},{"OBJECT_NAME":"KUIPER-00095","OBJECT_ID":"2025-171C","EPOCH":"2026-07-16T16:57:35.902656","CLASSIFICATION_TYPE":"U","MEAN_MOTION":14.79932779,"ECCENTRICITY":0.0000361,"INCLINATION":51.899,"RA_OF_ASC_NODE":295.1111,"ARG_OF_PERICENTER":92.876,"MEAN_ANOMALY":267.2244,"EPHEMERIS_TYPE":0,"NORAD_CAT_ID":65134,"ELEMENT_SET_NO":999,"REV_AT_EPOCH":5217,"BSTAR":0.000066461,"MEAN_MOTION_DOT":0.00000286,"MEAN_MOTION_DDOT":0}]}
