KUIPER-00080            
1 64827U 25151M   26197.70836186  .00001387  00000+0  21113-3 0  9994
2 64827  51.9003  90.0450 0000582 100.6910 259.4118 14.79896651 54417
KUIPER-00082            
1 64828U 25151N   26196.87766707  .00001575  00000+0  23561-3 0  9991
2 64828  51.9023  81.2700 0000897 104.2558 255.8504 14.79933866 54461
KUIPER-00083            
1 64829U 25151P   26197.67993028  .00001642  00000+0  24438-3 0  9998
2 64829  51.9013  85.2064 0000778 106.6366 253.4681 14.79936211 55669
KUIPER-00084            
1 64830U 25151Q   26197.73662830 -.00003982  00000+0 -49365-3 0  9998
2 64830  51.9024  94.9398 0000933 121.9095 238.1958 14.79931247 54347
KUIPER-00085            
1 64831U 25151R   26197.65426338  .00001581  00000+0  23637-3 0  9996
2 64831  51.9039  77.8833 0000782 106.9958 253.1090 14.79935642 54573
KUIPER-00086            
1 64832U 25151S   26197.71100437  .00000755  00000+0  12807-3 0  9992
2 64832  51.9020  87.5786 0000804 106.4261 253.6789 14.79932431 54445
KUIPER-00087            
1 64833U 25151T   26197.66234332 -.00000249  00000+0 -36798-5 0  9996
2 64833  51.9001  70.2530 0000990 130.4610 229.6439 14.79934397 54675
KUIPER-00089            
1 64834U 25151U   26197.04918476  .00001755  00000+0  25916-3 0  9996
2 64834  51.9015  77.9890 0000726 105.0577 255.0466 14.79935481 54523
KUIPER-00090            
1 64835U 25151V   26197.66504235 -.00000088  00000+0  17533-4 0  9995
2 64835  51.8990  67.7712 0000832 111.6311 248.4740 14.79933719 54716
KUIPER-00091            
1 64836U 25151W   26197.05188198  .00001693  00000+0  25105-3 0  9990
2 64836  51.9017  75.4945 0000897 111.0186 249.0872 14.79935237 54559
KUIPER-00092            
1 64837U 25151X   26197.65155487  .00000688  00000+0  11922-3 0  9997
2 64837  51.9022  80.3353 0000853 105.7798 254.3259 14.79932172 55751
KUIPER-00093            
1 64838U 25151Y   26197.37874323  .00000433  00000+0  85758-4 0  9991
2 64838  51.9012  84.0140 0000857 102.9948 257.1110 14.79933930 54463
KUIPER-00094            
1 64839U 25151Z   26196.75207174  .00001683  00000+0  24984-3 0  9998
2 64839  51.9051  41.8761 0001088 111.9348 248.1730 14.79918806 55002
KUIPER-00081            
1 65132U 25171A   26197.63643731  .00000354  00000+0  75495-4 0  9996
2 65132  51.9013 297.8728 0000469  76.6070 283.4944 14.79931920 52136
KUIPER-00088            
1 65133U 25171B   26197.68509424  .00000315  00000+0  70284-4 0  9990
2 65133  51.9006 315.1589 0000500 104.9704 255.1313 14.79931164 51891
KUIPER-00095            
1 65134U 25171C   26197.70666554  .00000286  00000+0  66461-4 0  9991
2 65134  51.8990 295.1111 0000361  92.8760 267.2244 14.79932779 52175
